{"fetched_at":"2026-03-29T02:12:04Z","count":15717,"tles":[{"name":"STARLINK-11114 [DTC]","line1":"1 59757U 24091E   26087.35578305  .00001681  00000+0  18742-4 0  9999","line2":"2 59757  53.1588 114.3709 0001286  98.9774 261.1390 15.69701461108440","category":"Starlink"}]}