{
  "norad_id": 59757,
  "name": "STARLINK-11114 [DTC]",
  "history": [
    {
      "epoch": "2026-03-28T08:32:19.655520Z",
      "apogee_km": 360.6177456795822,
      "perigee_km": 358.88462608041027,
      "latitude_deg": 4.3534464286940654e-05,
      "longitude_deg": 160.51162294361774,
      "height_km": 360.79969167941687,
      "semi_major_axis_km": 6737.888185879996,
      "eccentricity": 0.00012861,
      "inclination_deg": 53.1588,
      "raan_deg": 114.3709,
      "arg_perigee_deg": 98.9774,
      "mean_anomaly_deg": 261.139,
      "mean_motion_rev_day": 15.69701461
    }
  ]
}